start=new Date('2021-10-06T00:00:00.000Z').valueOf();
sats=[{"OBJECT_ID":"2020-038AS","INCLINATION":"53.0550","ARG_OF_PERICENTER":"64.9394","SITE":"AFETR","OBJECT_NAME":"STARLINK-1462","FILE":"3145988","TLE_LINE2":"2 45770  53.0550 252.4323 0001302  64.9394 295.1730 15.06403272 73136","LAUNCH_DATE":"2020-06-13","MEAN_ELEMENT_THEORY":"SGP4","RCS_SIZE":"LARGE","REV_AT_EPOCH":"7313","ECCENTRICITY":"0.00013020","MEAN_MOTION_DOT":"0.00000268","EPOCH":"2021-10-05T09:36:23.291712","COUNTRY_CODE":"US","BSTAR":"0.00003687300000","APOAPSIS":"548.105","CENTER_NAME":"EARTH","TLE_LINE1":"1 45770U 20038AS  21278.40026958  .00000268  00000-0  36873-4 0  9997","PERIAPSIS":"546.302","GP_ID":"186275639","SEMIMAJOR_AXIS":"6925.339","REF_FRAME":"TEME","MEAN_ANOMALY":"295.1730","EPHEMERIS_TYPE":"0","PERIOD":"95.592","RA_OF_ASC_NODE":"252.4323","CLASSIFICATION_TYPE":"U","MEAN_MOTION":"15.06403272","OBJECT_TYPE":"PAYLOAD","NORAD_CAT_ID":"45770","TIME_SYSTEM":"UTC","MEAN_MOTION_DDOT":"0.0000000000000","ELEMENT_SET_NO":"999","DECAY_DATE":null},{"LAUNCH_DATE":"2020-06-13","TLE_LINE2":"2 45771  53.0544 252.7569 0001319  66.8666 293.2462 15.06388318 73129","FILE":"3145988","RCS_SIZE":"LARGE","REV_AT_EPOCH":"7312","MEAN_ELEMENT_THEORY":"SGP4","COUNTRY_CODE":"US","EPOCH":"2021-10-05T07:51:36.319680","MEAN_MOTION_DOT":"-0.00000167","ECCENTRICITY":"0.00013190","BSTAR":"0.00000769360000","INCLINATION":"53.0544","OBJECT_ID":"2020-038AT","SITE":"AFETR","ARG_OF_PERICENTER":"66.8666","OBJECT_NAME":"STARLINK-1463","MEAN_MOTION":"15.06388318","RA_OF_ASC_NODE":"252.7569","CLASSIFICATION_TYPE":"U","TIME_SYSTEM":"UTC","NORAD_CAT_ID":"45771","OBJECT_TYPE":"PAYLOAD","MEAN_MOTION_DDOT":"0.0000000000000","DECAY_DATE":null,"ELEMENT_SET_NO":"999","PERIAPSIS":"546.336","TLE_LINE1":"1 45771U 20038AT  21278.32750370 -.00000167  00000-0  76936-5 0  9995","APOAPSIS":"548.163","CENTER_NAME":"EARTH","MEAN_ANOMALY":"293.2462","REF_FRAME":"TEME","GP_ID":"186275390","SEMIMAJOR_AXIS":"6925.384","PERIOD":"95.593","EPHEMERIS_TYPE":"0"},{"TLE_LINE2":"2 45772  53.0536 252.5121 0001458  67.4904 292.6240 15.06395382 73147","LAUNCH_DATE":"2020-06-13","FILE":"3145988","RCS_SIZE":"LARGE","REV_AT_EPOCH":"7314","MEAN_ELEMENT_THEORY":"SGP4","COUNTRY_CODE":"US","EPOCH":"2021-10-05T09:11:13.009344","MEAN_MOTION_DOT":"0.00002305","ECCENTRICITY":"0.00014580","BSTAR":"0.00017361000000","INCLINATION":"53.0536","OBJECT_ID":"2020-038AU","SITE":"AFETR","ARG_OF_PERICENTER":"67.4904","OBJECT_NAME":"STARLINK-1470","MEAN_MOTION":"15.06395382","RA_OF_ASC_NODE":"252.5121","CLASSIFICATION_TYPE":"U","TIME_SYSTEM":"UTC","NORAD_CAT_ID":"45772","OBJECT_TYPE":"PAYLOAD","MEAN_MOTION_DDOT":"0.0000000000000","DECAY_DATE":null,"ELEMENT_SET_NO":"999","PERIAPSIS":"546.218","TLE_LINE1":"1 45772U 20038AU  21278.38278946  .00002305  00000-0  17361-3 0  9996","CENTER_NAME":"EARTH","APOAPSIS":"548.237","MEAN_ANOMALY":"292.6240","REF_FRAME":"TEME","SEMIMAJOR_AXIS":"6925.363","GP_ID":"186274138","PERIOD":"95.592","EPHEMERIS_TYPE":"0"},{"RA_OF_ASC_NODE":"252.2396","CLASSIFICATION_TYPE":"U","MEAN_MOTION":"15.06385821","OBJECT_TYPE":"PAYLOAD","TIME_SYSTEM":"UTC","NORAD_CAT_ID":"45773","MEAN_MOTION_DDOT":"0.0000000000000","ELEMENT_SET_NO":"999","DECAY_DATE":null,"TLE_LINE1":"1 45773U 20038AV  21278.44176906  .00000444  00000-0  48750-4 0  9996","APOAPSIS":"548.262","CENTER_NAME":"EARTH","PERIAPSIS":"546.252","GP_ID":"186274388","SEMIMAJOR_AXIS":"6925.392","MEAN_ANOMALY":"293.1384","REF_FRAME":"TEME","EPHEMERIS_TYPE":"0","PERIOD":"95.593","FILE":"3145988","TLE_LINE2":"2 45773  53.0543 252.2396 0001451  66.9758 293.1384 15.06385821 73154","LAUNCH_DATE":"2020-06-13","MEAN_ELEMENT_THEORY":"SGP4","RCS_SIZE":"LARGE","REV_AT_EPOCH":"7315","MEAN_MOTION_DOT":"0.00000444","ECCENTRICITY":"0.00014510","COUNTRY_CODE":"US","EPOCH":"2021-10-05T10:36:08.846784","BSTAR":"0.00004875000000","INCLINATION":"53.0543","OBJECT_ID":"2020-038AV","SITE":"AFETR","ARG_OF_PERICENTER":"66.9758","OBJECT_NAME":"STARLINK-1482"},{"GP_ID":"186275140","SEMIMAJOR_AXIS":"6925.349","REF_FRAME":"TEME","MEAN_ANOMALY":"282.8724","CENTER_NAME":"EARTH","APOAPSIS":"548.222","TLE_LINE1":"1 45774U 20038AW  21278.41227324  .00000215  00000-0  33304-4 0  9990","PERIAPSIS":"546.207","EPHEMERIS_TYPE":"0","PERIOD":"95.592","OBJECT_TYPE":"PAYLOAD","NORAD_CAT_ID":"45774","TIME_SYSTEM":"UTC","RA_OF_ASC_NODE":"252.3773","CLASSIFICATION_TYPE":"U","MEAN_MOTION":"15.06399705","ELEMENT_SET_NO":"999","DECAY_DATE":null,"MEAN_MOTION_DDOT":"0.0000000000000","OBJECT_ID":"2020-038AW","INCLINATION":"53.0527","OBJECT_NAME":"STARLINK-1485","ARG_OF_PERICENTER":"77.2427","SITE":"AFETR","MEAN_ELEMENT_THEORY":"SGP4","REV_AT_EPOCH":"7314","RCS_SIZE":"LARGE","FILE":"3145988","LAUNCH_DATE":"2020-06-13","TLE_LINE2":"2 45774  53.0527 252.3773 0001455  77.2427 282.8724 15.06399705 73147","BSTAR":"0.00003330400000","ECCENTRICITY":"0.00014550","MEAN_MOTION_DOT":"0.00000215","EPOCH":"2021-10-05T09:53:40.407936","COUNTRY_CODE":"US"},{"PERIAPSIS":"546.121","APOAPSIS":"548.379","CENTER_NAME":"EARTH","TLE_LINE1":"1 45775U 20038AX  21278.34961740 -.00000003  00000-0  18696-4 0  9993","REF_FRAME":"TEME","MEAN_ANOMALY":"291.0815","GP_ID":"186275890","SEMIMAJOR_AXIS":"6925.385","PERIOD":"95.593","EPHEMERIS_TYPE":"0","MEAN_MOTION":"15.06388080","RA_OF_ASC_NODE":"252.6557","CLASSIFICATION_TYPE":"U","NORAD_CAT_ID":"45775","TIME_SYSTEM":"UTC","OBJECT_TYPE":"PAYLOAD","MEAN_MOTION_DDOT":"0.0000000000000","ELEMENT_SET_NO":"999","DECAY_DATE":null,"OBJECT_ID":"2020-038AX","INCLINATION":"53.0541","ARG_OF_PERICENTER":"69.0349","SITE":"AFETR","OBJECT_NAME":"STARLINK-1488","LAUNCH_DATE":"2020-06-13","TLE_LINE2":"2 45775  53.0541 252.6557 0001630  69.0349 291.0815 15.06388080 73141","FILE":"3145988","RCS_SIZE":"LARGE","REV_AT_EPOCH":"7314","MEAN_ELEMENT_THEORY":"SGP4","EPOCH":"2021-10-05T08:23:26.943360","COUNTRY_CODE":"US","ECCENTRICITY":"0.00016300","MEAN_MOTION_DOT":"-0.00000003","BSTAR":"0.00001869600000"},{"REV_AT_EPOCH":"7314","RCS_SIZE":"LARGE","MEAN_ELEMENT_THEORY":"SGP4","TLE_LINE2":"2 45776  53.0530 252.6282 0001469  70.5442 289.5705 15.06405665 73145","LAUNCH_DATE":"2020-06-13","FILE":"3145988","BSTAR":"0.00002178100000","COUNTRY_CODE":"US","EPOCH":"2021-10-05T08:34:02.976960","MEAN_MOTION_DOT":"0.00000043","ECCENTRICITY":"0.00014690","INCLINATION":"53.0530","OBJECT_ID":"2020-038AY","OBJECT_NAME":"STARLINK-1489","SITE":"AFETR","ARG_OF_PERICENTER":"70.5442","TIME_SYSTEM":"UTC","NORAD_CAT_ID":"45776","OBJECT_TYPE":"PAYLOAD","MEAN_MOTION":"15.06405665","CLASSIFICATION_TYPE":"U","RA_OF_ASC_NODE":"252.6282","ELEMENT_SET_NO":"999","DECAY_DATE":null,"MEAN_MOTION_DDOT":"0.0000000000000","MEAN_ANOMALY":"289.5705","REF_FRAME":"TEME","SEMIMAJOR_AXIS":"6925.331","GP_ID":"186274638","PERIAPSIS":"546.179","TLE_LINE1":"1 45776U 20038AY  21278.35697890  .00000043  00000-0  21781-4 0  9999","APOAPSIS":"548.214","CENTER_NAME":"EARTH","PERIOD":"95.592","EPHEMERIS_TYPE":"0"},{"ECCENTRICITY":"0.00014330","MEAN_MOTION_DOT":"0.00000399","EPOCH":"2021-10-05T08:28:45.689376","COUNTRY_CODE":"US","BSTAR":"0.00004569000000","FILE":"3145988","LAUNCH_DATE":"2020-06-13","TLE_LINE2":"2 45777  53.0543 252.6423 0001433  71.9258 288.1887 15.06387524 73147","MEAN_ELEMENT_THEORY":"SGP4","REV_AT_EPOCH":"7314","RCS_SIZE":"LARGE","ARG_OF_PERICENTER":"71.9258","SITE":"AFETR","OBJECT_NAME":"STARLINK-1490","OBJECT_ID":"2020-038AZ","INCLINATION":"53.0543","MEAN_MOTION_DDOT":"0.0000000000000","ELEMENT_SET_NO":"999","DECAY_DATE":null,"RA_OF_ASC_NODE":"252.6423","CLASSIFICATION_TYPE":"U","MEAN_MOTION":"15.06387524","OBJECT_TYPE":"PAYLOAD","NORAD_CAT_ID":"45777","TIME_SYSTEM":"UTC","EPHEMERIS_TYPE":"0","PERIOD":"95.593","APOAPSIS":"548.244","CENTER_NAME":"EARTH","TLE_LINE1":"1 45777U 20038AZ  21278.35330659  .00000399  00000-0  45690-4 0  9996","PERIAPSIS":"546.259","GP_ID":"186274888","SEMIMAJOR_AXIS":"6925.387","REF_FRAME":"TEME","MEAN_ANOMALY":"288.1887"},{"OBJECT_ID":"2020-038BA","INCLINATION":"53.0537","OBJECT_NAME":"STARLINK-1491","ARG_OF_PERICENTER":"86.2615","SITE":"AFETR","REV_AT_EPOCH":"7310","RCS_SIZE":"LARGE","MEAN_ELEMENT_THEORY":"SGP4","TLE_LINE2":"2 45778  53.0537 253.3230 0001325  86.2615 273.8525 15.06396158 73100","LAUNCH_DATE":"2020-06-13","FILE":"3145988","BSTAR":"-0.00001695500000","EPOCH":"2021-10-05T04:51:08.074656","COUNTRY_CODE":"US","ECCENTRICITY":"0.00013250","MEAN_MOTION_DOT":"-0.00000534","REF_FRAME":"TEME","MEAN_ANOMALY":"273.8525","SEMIMAJOR_AXIS":"6925.360","GP_ID":"186275640","PERIAPSIS":"546.308","CENTER_NAME":"EARTH","APOAPSIS":"548.143","TLE_LINE1":"1 45778U 20038BA  21278.20217679 -.00000534  00000-0 -16955-4 0  9992","PERIOD":"95.592","EPHEMERIS_TYPE":"0","NORAD_CAT_ID":"45778","TIME_SYSTEM":"UTC","OBJECT_TYPE":"PAYLOAD","MEAN_MOTION":"15.06396158","CLASSIFICATION_TYPE":"U","RA_OF_ASC_NODE":"253.3230","DECAY_DATE":null,"ELEMENT_SET_NO":"999","MEAN_MOTION_DDOT":"0.0000000000000"},{"EPOCH":"2021-10-05T07:56:54.067776","COUNTRY_CODE":"US","ECCENTRICITY":"0.00013810","MEAN_MOTION_DOT":"0.00000121","BSTAR":"0.00002702000000","TLE_LINE2":"2 45779  53.0545 252.7472 0001381  76.3125 283.8018 15.06400232 73128","LAUNCH_DATE":"2020-06-13","FILE":"3145988","REV_AT_EPOCH":"7312","RCS_SIZE":"LARGE","MEAN_ELEMENT_THEORY":"SGP4","ARG_OF_PERICENTER":"76.3125","SITE":"AFETR","OBJECT_NAME":"STARLINK-1492","OBJECT_ID":"2020-038BB","INCLINATION":"53.0545","MEAN_MOTION_DDOT":"0.0000000000000","ELEMENT_SET_NO":"999","DECAY_DATE":null,"MEAN_MOTION":"15.06400232","RA_OF_ASC_NODE":"252.7472","CLASSIFICATION_TYPE":"U","NORAD_CAT_ID":"45779","TIME_SYSTEM":"UTC","OBJECT_TYPE":"PAYLOAD","PERIOD":"95.592","EPHEMERIS_TYPE":"0","PERIAPSIS":"546.256","APOAPSIS":"548.169","CENTER_NAME":"EARTH","TLE_LINE1":"1 45779U 20038BB  21278.33118134  .00000121  00000-0  27020-4 0  9998","REF_FRAME":"TEME","MEAN_ANOMALY":"283.8018","GP_ID":"186275391","SEMIMAJOR_AXIS":"6925.348"}];
